ONEWEB-0158             
1 48054U 21025N   24214.90222112  .00000300  00000+0  78706-3 0  9996
2 48054  87.8902  96.4067 0001991  77.4463 282.6888 13.13468099163804
ONEWEB-0157             
1 48055U 21025P   24214.69748710 -.00000492  00000+0 -13835-2 0  9995
2 48055  87.8897  96.4618 0001907  84.5289 275.6058 13.13468854163723
ONEWEB-0162             
1 48056U 21025Q   24214.20391999  .00000383  00000+0  10149-2 0  9998
2 48056  87.8900  96.5556 0001889  79.8552 280.2790 13.13472143163620
ONEWEB-0155             
1 48057U 21025R   24214.37692574  .00000027  00000+0  39007-4 0  9991
2 48057  87.8902  96.5322 0001620  82.8230 277.3083 13.13469106163788
ONEWEB-0149             
1 48058U 21025S   24214.62606961 -.00000480  00000+0 -13505-2 0  9993
2 48058  87.8901  96.4785 0002106  82.4279 277.7089 13.13469809163622
ONEWEB-0148             
1 48059U 21025T   24214.43881091  .00000313  00000+0  82332-3 0  9990
2 48059  87.8903  96.5278 0002320  91.5153 268.6242 13.13468308163727
ONEWEB-0160             
1 48060U 21025U   24214.37849453 -.00000027  00000+0 -10881-3 0  9995
2 48060  87.8904  96.5358 0002320  55.7678 304.3671 13.13467806163662
ONEWEB-0163             
1 48061U 21025V   24214.21186208  .00000309  00000+0  81118-3 0  9993
2 48061  87.8902  96.5602 0001772  87.8730 272.2602 13.13468673163769
